{"type": "FeatureCollection", "features": [ {"type": "Feature", "properties": {"norad_id": 66656, "name": "2025-274G", "group": "last-30-days", "lat": 80.46841969296601, "lon": -126.16862364739569, "alt_km": 587.7143903708984, "timestamp": "2025-12-26T23:26:40.919932+00:00", "meta": {"OBJECT_NAME": "2025-274G", "OBJECT_ID": "2025-274G", "EPOCH": "2025-12-26T18:14:21.774336", "MEAN_MOTION": 14.92357214, "ECCENTRICITY": 0.0013029, "INCLINATION": 97.7403, "RA_OF_ASC_NODE": 287.7186, "ARG_OF_PERICENTER": 205.1817, "MEAN_ANOMALY": 154.8769, "EPHEMERIS_TYPE": 0, "CLASSIFICATION_TYPE": "U", "NORAD_CAT_ID": 66656, "ELEMENT_SET_NO": 999, "REV_AT_EPOCH": 449, "BSTAR": 0.00034998, "MEAN_MOTION_DOT": 3.529e-05, "MEAN_MOTION_DDOT": 0}, "tle": {"line1": "1 66656U 25274G   25360.75997424  .00003529  00000+0  34998-3 0  9996", "line2": "2 66656  97.7403 287.7186 0013029 205.1817 154.8769 14.92357214  4494"}}, "geometry": {"type": "Point", "coordinates": [-126.16862364739569, 80.46841969296601]}}, {"type": "Feature", "properties": {"norad_id": 66657, "name": "SPIRONE", "group": "last-30-days", "lat": 74.065064534759, "lon": 136.3868652591767, "alt_km": 586.4949677128907, "timestamp": "2025-12-26T23:26:40.919944+00:00", "meta": {"OBJECT_NAME": "SPIRONE", "OBJECT_ID": "2025-274H", "EPOCH": "2025-12-26T18:09:10.151136", "MEAN_MOTION": 14.92536223, "ECCENTRICITY": 0.0010974, "INCLINATION": 97.7399, "RA_OF_ASC_NODE": 287.7226, "ARG_OF_PERICENTER": 222.2811, "MEAN_ANOMALY": 137.7564, "EPHEMERIS_TYPE": 0, "CLASSIFICATION_TYPE": "U", "NORAD_CAT_ID": 66657, "ELEMENT_SET_NO": 999, "REV_AT_EPOCH": 449, "BSTAR": 0.00037802, "MEAN_MOTION_DOT": 3.832e-05, "MEAN_MOTION_DDOT": 0}, "tle": {"line1": "1 66657U 25274H   25360.75636749  .00003832  00000+0  37802-3 0  9991", "line2": "2 66657  97.7399 287.7226 0010974 222.2811 137.7564 14.92536223  4496"}}, "geometry": {"type": "Point", "coordinates": [136.3868652591767, 74.065064534759]}}, {"type": "Feature", "properties": {"norad_id": 66658, "name": "2025-274J", "group": "last-30-days", "lat": 56.325007848163246, "lon": 119.72618035146337, "alt_km": 585.7254406349693, "timestamp": "2025-12-26T23:26:40.919957+00:00", "meta": {"OBJECT_NAME": "2025-274J", "OBJECT_ID": "2025-274J", "EPOCH": "2025-12-26T18:04:08.481216", "MEAN_MOTION": 14.92721317, "ECCENTRICITY": 0.0011464, "INCLINATION": 97.74, "RA_OF_ASC_NODE": 287.7274, "ARG_OF_PERICENTER": 225.5118, "MEAN_ANOMALY": 134.5165, "EPHEMERIS_TYPE": 0, "CLASSIFICATION_TYPE": "U", "NORAD_CAT_ID": 66658, "ELEMENT_SET_NO": 999, "REV_AT_EPOCH": 449, "BSTAR": 0.00054422, "MEAN_MOTION_DOT": 5.569e-05, "MEAN_MOTION_DDOT": 0}, "tle": {"line1": "1 66658U 25274J   25360.75287594  .00005569  00000+0  54422-3 0  9998", "line2": "2 66658  97.7400 287.7274 0011464 225.5118 134.5165 14.92721317  4496"}}, "geometry": {"type": "Point", "coordinates": [119.72618035146337, 56.325007848163246]}}, {"type": "Feature", "properties": {"norad_id": 66659, "name": "JACK K", "group": "last-30-days", "lat": 36.71787126062135, "lon": 113.77938386435675, "alt_km": 585.4975525557993, "timestamp": "2025-12-26T23:26:40.919969+00:00", "meta": {"OBJECT_NAME": "JACK K", "OBJECT_ID": "2025-274K", "EPOCH": "2025-12-26T17:58:48.840096", "MEAN_MOTION": 14.92886476, "ECCENTRICITY": 0.0012246, "INCLINATION": 97.7403, "RA_OF_ASC_NODE": 287.7329, "ARG_OF_PERICENTER": 227.6944, "MEAN_ANOMALY": 132.3238, "EPHEMERIS_TYPE": 0, "CLASSIFICATION_TYPE": "U", "NORAD_CAT_ID": 66659, "ELEMENT_SET_NO": 999, "REV_AT_EPOCH": 449, "BSTAR": 0.00034059, "MEAN_MOTION_DOT": 3.478e-05, "MEAN_MOTION_DDOT": 0}, "tle": {"line1": "1 66659U 25274K   25360.74917639  .00003478  00000+0  34059-3 0  9999", "line2": "2 66659  97.7403 287.7329 0012246 227.6944 132.3238 14.92886476  4495"}}, "geometry": {"type": "Point", "coordinates": [113.77938386435675, 36.71787126062135]}}, {"type": "Feature", "properties": {"norad_id": 66660, "name": "K-HERO", "group": "last-30-days", "lat": 20.527997787589623, "lon": 110.88470555271726, "alt_km": 585.2123949300931, "timestamp": "2025-12-26T23:26:40.919980+00:00", "meta": {"OBJECT_NAME": "K-HERO", "OBJECT_ID": "2025-274L", "EPOCH": "2025-12-26T17:54:27.478368", "MEAN_MOTION": 14.93036689, "ECCENTRICITY": 0.0012868, "INCLINATION": 97.7404, "RA_OF_ASC_NODE": 287.7384, "ARG_OF_PERICENTER": 228.4819, "MEAN_ANOMALY": 131.5297, "EPHEMERIS_TYPE": 0, "CLASSIFICATION_TYPE": "U", "NORAD_CAT_ID": 66660, "ELEMENT_SET_NO": 999, "REV_AT_EPOCH": 449, "BSTAR": 0.0003216, "MEAN_MOTION_DOT": 3.294e-05, "MEAN_MOTION_DDOT": 0}, "tle": {"line1": "1 66660U 25274L   25360.74615137  .00003294  00000+0  32160-3 0  9996", "line2": "2 66660  97.7404 287.7384 0012868 228.4819 131.5297 14.93036689  4499"}}, "geometry": {"type": "Point", "coordinates": [110.88470555271726, 20.527997787589623]}}, {"type": "Feature", "properties": {"norad_id": 66661, "name": "SNUGLITE-III", "group": "last-30-days", "lat": 5.16622280519955, "lon": 108.67532409287776, "alt_km": 584.9512931001036, "timestamp": "2025-12-26T23:26:40.919991+00:00", "meta": {"OBJECT_NAME": "SNUGLITE-III", "OBJECT_ID": "2025-274M", "EPOCH": "2025-12-26T17:50:19.972608", "MEAN_MOTION": 14.9316814, "ECCENTRICITY": 0.0013493, "INCLINATION": 97.7402, "RA_OF_ASC_NODE": 287.7409, "ARG_OF_PERICENTER": 230.0492, "MEAN_ANOMALY": 129.9543, "EPHEMERIS_TYPE": 0, "CLASSIFICATION_TYPE": "U", "NORAD_CAT_ID": 66661, "ELEMENT_SET_NO": 999, "REV_AT_EPOCH": 449, "BSTAR": 0.0002994, "MEAN_MOTION_DOT": 3.074e-05, "MEAN_MOTION_DDOT": 0}, "tle": {"line1": "1 66661U 25274M   25360.74328672  .00003074  00000+0  29940-3 0  9990", "line2": "2 66661  97.7402 287.7409 0013493 230.0492 129.9543 14.93168140  4490"}}, "geometry": {"type": "Point", "coordinates": [108.67532409287776, 5.16622280519955]}}, {"type": "Feature", "properties": {"norad_id": 66662, "name": "2025-274N", "group": "last-30-days", "lat": -0.9580008494575675, "lon": 107.84355610717208, "alt_km": 584.5747976328394, "timestamp": "2025-12-26T23:26:40.920002+00:00", "meta": {"OBJECT_NAME": "2025-274N", "OBJECT_ID": "2025-274N", "EPOCH": "2025-12-26T17:48:41.424768", "MEAN_MOTION": 14.93224723, "ECCENTRICITY": 0.0013928, "INCLINATION": 97.7402, "RA_OF_ASC_NODE": 287.7429, "ARG_OF_PERICENTER": 229.8114, "MEAN_ANOMALY": 130.1887, "EPHEMERIS_TYPE": 0, "CLASSIFICATION_TYPE": "U", "NORAD_CAT_ID": 66662, "ELEMENT_SET_NO": 999, "REV_AT_EPOCH": 449, "BSTAR": 0.00030909, "MEAN_MOTION_DOT": 3.18e-05, "MEAN_MOTION_DDOT": 0}, "tle": {"line1": "1 66662U 25274N   25360.74214612  .00003180  00000+0  30909-3 0  9994", "line2": "2 66662  97.7402 287.7429 0013928 229.8114 130.1887 14.93224723  4498"}}, "geometry": {"type": "Point", "coordinates": [107.84355610717208, -0.9580008494575675]}}, {"type": "Feature", "properties": {"norad_id": 66663, "name": "KSLV-II R/B", "group": "last-30-days", "lat": -75.79692330581994, "lon": -39.28750373108895, "alt_km": 540.6946541672532, "timestamp": "2025-12-26T23:26:40.920016+00:00", "meta": {"OBJECT_NAME": "KSLV-II R/B", "OBJECT_ID": "2025-274P", "EPOCH": "2025-12-23T05:59:25.426176", "MEAN_MOTION": 14.97536982, "ECCENTRICITY": 0.00600006, "INCLINATION": 97.7435, "RA_OF_ASC_NODE": 284.4956, "ARG_OF_PERICENTER": 282.7951, "MEAN_ANOMALY": 76.657, "EPHEMERIS_TYPE": 0, "CLASSIFICATION_TYPE": "U", "NORAD_CAT_ID": 66663, "ELEMENT_SET_NO": 999, "REV_AT_EPOCH": 398, "BSTAR": 0.0011394408, "MEAN_MOTION_DOT": 0.00013749, "MEAN_MOTION_DDOT": 0}, "tle": {"line1": "1 66663U 25274P   25357.24959984  .00013749  00000+0  11394-2 0  9992", "line2": "2 66663  97.7435 284.4956 0060000 282.7951  76.6570 14.97536982  3987"}}, "geometry": {"type": "Point", "coordinates": [-39.28750373108895, -75.79692330581994]}}, {"type": "Feature", "properties": {"norad_id": 66664, "name": "SOYUZ-MS 28", "group": "last-30-days", "lat": -37.860315928336405, "lon": 33.951936068715966, "alt_km": 419.0620934816252, "timestamp": "2025-12-26T23:26:40.920028+00:00", "meta": {"OBJECT_NAME": "SOYUZ-MS 28", "OBJECT_ID": "2025-275A", "EPOCH": "2025-12-26T12:50:01.192992", "MEAN_MOTION": 15.49844261, "ECCENTRICITY": 0.0003231, "INCLINATION": 51.632, "RA_OF_ASC_NODE": 74.1581, "ARG_OF_PERICENTER": 305.5588, "MEAN_ANOMALY": 54.5099, "EPHEMERIS_TYPE": 0, "CLASSIFICATION_TYPE": "U", "NORAD_CAT_ID": 66664, "ELEMENT_SET_NO": 999, "REV_AT_EPOCH": 458, "BSTAR": 0.00025382, "MEAN_MOTION_DOT": 0.00013978, "MEAN_MOTION_DDOT": 0}, "tle": {"line1": "1 66664U 25275A   25360.53473603  .00013978  00000+0  25382-3 0  9996", "line2": "2 66664  51.6320  74.1581 0003231 305.5588  54.5099 15.49844261  4589"}}, "geometry": {"type": "Point", "coordinates": [33.951936068715966, -37.860315928336405]}}, {"type": "Feature", "properties": {"norad_id": 66666, "name": "FORMOSAT-8A", "group": "last-30-days", "lat": 50.109535874304136, "lon": 63.444309791586484, "alt_km": 563.0474927930445, "timestamp": "2025-12-26T23:26:40.920041+00:00", "meta": {"OBJECT_NAME": "FORMOSAT-8A", "OBJECT_ID": "2025-276A", "EPOCH": "2025-12-26T15:12:58.247136", "MEAN_MOTION": 15.00368206, "ECCENTRICITY": 0.0004108, "INCLINATION": 97.6575, "RA_OF_ASC_NODE": 72.3697, "ARG_OF_PERICENTER": 182.2215, "MEAN_ANOMALY": 177.8991, "EPHEMERIS_TYPE": 0, "CLASSIFICATION_TYPE": "U", "NORAD_CAT_ID": 66666, "ELEMENT_SET_NO": 999, "REV_AT_EPOCH": 417, "BSTAR": 0.00033092, "MEAN_MOTION_DOT": 4.097e-05, "MEAN_MOTION_DDOT": 0}, "tle": {"line1": "1 66666U 25276A   25360.63400749  .00004097  00000+0  33092-3 0  9990", "line2": "2 66666  97.6575  72.3697 0004108 182.2215 177.8991 15.00368206  4174"}}, "geometry": {"type": "Point", "coordinates": [63.444309791586484, 50.109535874304136]}}]}